[Satellite]
VERSION=1.1
NAME=EXPRESS-AM 44
NICKNAME=EXPRESS-AM 44
TLE1=1 33595U 09007A   15055.11591964 -.00000115  00000-0  00000+0 0  9990
TLE2=2 33595   0.0165   6.5828 0001348  57.9277 119.8641  1.00272153 22130
